[
    {
        "Altitude(m)": 705270.0243629242,
        "Argument of Periapsis(deg)": 0.0022780242373254137,
        "Eccentricity": 0.0,
        "Inclination(deg)": 45.0,
        "Latitude(deg)": -10.002291209739079,
        "Longitude(deg)": 94.76655996625024,
        "Mean Anomaly(deg)": -14.056956670503943,
        "RAAN(deg)": 204.99784961170835,
        "Satellite Name": "Constellation 1 923",
        "Satellite Number": 923,
        "Semi-Major Axis(m)": 7083131.272910544,
        "Time(s)": 38
    },
    {
        "Altitude(m)": 705259.9862116273,
        "Argument of Periapsis(deg)": 0.002337972243570819,
        "Eccentricity": 0.0,
        "Inclination(deg)": 45.0,
        "Latitude(deg)": -9.959774132709935,
        "Longitude(deg)": 94.80660744284117,
        "Mean Anomaly(deg)": -13.996255530253956,
        "RAAN(deg)": 204.99779302254277,
        "Satellite Name": "Constellation 1 923",
        "Satellite Number": 923,
        "Semi-Major Axis(m)": 7083131.272910544,
        "Time(s)": 39
    },
    {
        "Altitude(m)": 705249.9647881236,
        "Argument of Periapsis(deg)": 0.0023979202498162246,
        "Eccentricity": 0.0,
        "Inclination(deg)": 45.0,
        "Latitude(deg)": -9.917251027069652,
        "Longitude(deg)": 94.84664358686085,
        "Mean Anomaly(deg)": -13.935554390004121,
        "RAAN(deg)": 204.9977364333772,
        "Satellite Name": "Constellation 1 923",
        "Satellite Number": 923,
        "Semi-Major Axis(m)": 7083131.272910544,
        "Time(s)": 40
    },
    {
        "Altitude(m)": 705239.9601193451,
        "Argument of Periapsis(deg)": 0.00245786825606163,
        "Eccentricity": 0.0,
        "Inclination(deg)": 45.0,
        "Latitude(deg)": -9.874721920148755,
        "Longitude(deg)": 94.88666844930214,
        "Mean Anomaly(deg)": -13.874853249754155,
        "RAAN(deg)": 204.99767984421166,
        "Satellite Name": "Constellation 1 923",
        "Satellite Number": 923,
        "Semi-Major Axis(m)": 7083131.272910544,
        "Time(s)": 41
    },
    {
        "Altitude(m)": 705229.9722321557,
        "Argument of Periapsis(deg)": 0.002517816262307036,
        "Eccentricity": 0.0,
        "Inclination(deg)": 45.0,
        "Latitude(deg)": -9.832186839256726,
        "Longitude(deg)": 94.926682081135,
        "Mean Anomaly(deg)": -13.814152109504295,
        "RAAN(deg)": 204.99762325504605,
        "Satellite Name": "Constellation 1 923",
        "Satellite Number": 923,
        "Semi-Major Axis(m)": 7083131.272910544,
        "Time(s)": 42
    },
    {
        "Altitude(m)": 705220.0011533317,
        "Argument of Periapsis(deg)": 0.0025777642685524413,
        "Eccentricity": 0.0,
        "Inclination(deg)": 45.0,
        "Latitude(deg)": -9.789645811681552,
        "Longitude(deg)": 94.96668453330713,
        "Mean Anomaly(deg)": -13.753450969254333,
        "RAAN(deg)": 204.9975666658805,
        "Satellite Name": "Constellation 1 923",
        "Satellite Number": 923,
        "Semi-Major Axis(m)": 7083131.272910544,
        "Time(s)": 43
    },
    {
        "Altitude(m)": 705210.046909572,
        "Argument of Periapsis(deg)": 0.002637712274797847,
        "Eccentricity": 0.0,
        "Inclination(deg)": 45.0,
        "Latitude(deg)": -9.747098864690292,
        "Longitude(deg)": 95.00667568864652,
        "Mean Anomaly(deg)": -13.692749829004471,
        "RAAN(deg)": 204.99751007671492,
        "Satellite Name": "Constellation 1 923",
        "Satellite Number": 923,
        "Semi-Major Axis(m)": 7083131.272910544,
        "Time(s)": 44
    },
    {
        "Altitude(m)": 705200.109527504,
        "Argument of Periapsis(deg)": 0.0026976602810432526,
        "Eccentricity": 0.0,
        "Inclination(deg)": 45.0,
        "Latitude(deg)": -9.704546025528757,
        "Longitude(deg)": 95.04665593425003,
        "Mean Anomaly(deg)": -13.632048688754509,
        "RAAN(deg)": 204.99745348754936,
        "Satellite Name": "Constellation 1 923",
        "Satellite Number": 923,
        "Semi-Major Axis(m)": 7083131.272910544,
        "Time(s)": 45
    },
    {
        "Altitude(m)": 705190.1890336535,
        "Argument of Periapsis(deg)": 0.0027576082872886585,
        "Eccentricity": 0.0,
        "Inclination(deg)": 45.0,
        "Latitude(deg)": -9.661987321422101,
        "Longitude(deg)": 95.08662515290094,
        "Mean Anomaly(deg)": -13.57134754850475,
        "RAAN(deg)": 204.9973968983838,
        "Satellite Name": "Constellation 1 923",
        "Satellite Number": 923,
        "Semi-Major Axis(m)": 7083131.272910544,
        "Time(s)": 46
    },
    {
        "Altitude(m)": 705180.2854544873,
        "Argument of Periapsis(deg)": 0.0028175562935340644,
        "Eccentricity": 0.0,
        "Inclination(deg)": 45.0,
        "Latitude(deg)": -9.619422779574158,
        "Longitude(deg)": 95.12658339545773,
        "Mean Anomaly(deg)": -13.510646408254786,
        "RAAN(deg)": 204.9973403092182,
        "Satellite Name": "Constellation 1 923",
        "Satellite Number": 923,
        "Semi-Major Axis(m)": 7083131.272910544,
        "Time(s)": 47
    },
    {
        "Altitude(m)": 705170.3988163747,
        "Argument of Periapsis(deg)": 0.00287750429977947,
        "Eccentricity": 0.0,
        "Inclination(deg)": 45.0,
        "Latitude(deg)": -9.57685242716848,
        "Longitude(deg)": 95.16653071275643,
        "Mean Anomaly(deg)": -13.449945268004823,
        "RAAN(deg)": 204.99728372005265,
        "Satellite Name": "Constellation 1 923",
        "Satellite Number": 923,
        "Semi-Major Axis(m)": 7083131.272910544,
        "Time(s)": 48
    },
    {
        "Altitude(m)": 705160.5291456168,
        "Argument of Periapsis(deg)": 0.002937452306024875,
        "Eccentricity": 0.0,
        "Inclination(deg)": 45.0,
        "Latitude(deg)": -9.534276291367856,
        "Longitude(deg)": 95.20646715561107,
        "Mean Anomaly(deg)": -13.389244127754989,
        "RAAN(deg)": 204.9972271308871,
        "Satellite Name": "Constellation 1 923",
        "Satellite Number": 923,
        "Semi-Major Axis(m)": 7083131.272910544,
        "Time(s)": 49
    },
    {
        "Altitude(m)": 705150.6764684205,
        "Argument of Periapsis(deg)": 0.0029974003122702807,
        "Eccentricity": 0.0,
        "Inclination(deg)": 45.0,
        "Latitude(deg)": -9.491694399314387,
        "Longitude(deg)": 95.24639277481383,
        "Mean Anomaly(deg)": -13.328542987505102,
        "RAAN(deg)": 204.99717054172152,
        "Satellite Name": "Constellation 1 923",
        "Satellite Number": 923,
        "Semi-Major Axis(m)": 7083131.272910544,
        "Time(s)": 50
    },
    {
        "Altitude(m)": 705140.8408109249,
        "Argument of Periapsis(deg)": 0.0030573483185156866,
        "Eccentricity": 0.0,
        "Inclination(deg)": 45.0,
        "Latitude(deg)": -9.44910677812977,
        "Longitude(deg)": 95.28630762113507,
        "Mean Anomaly(deg)": -13.267841847255166,
        "RAAN(deg)": 204.99711395255596,
        "Satellite Name": "Constellation 1 923",
        "Satellite Number": 923,
        "Semi-Major Axis(m)": 7083131.272910544,
        "Time(s)": 51
    },
    {
        "Altitude(m)": 705131.0221991788,
        "Argument of Periapsis(deg)": 0.003117296324761092,
        "Eccentricity": 0.0,
        "Inclination(deg)": 45.0,
        "Latitude(deg)": -9.406513454915519,
        "Longitude(deg)": 95.32621157722609,
        "Mean Anomaly(deg)": -13.207140707005278,
        "RAAN(deg)": 204.99705736339038,
        "Satellite Name": "Constellation 1 923",
        "Satellite Number": 923,
        "Semi-Major Axis(m)": 7083131.272910544,
        "Time(s)": 52
    },
    {
        "Altitude(m)": 705121.2206591531,
        "Argument of Periapsis(deg)": 0.0031772443310064975,
        "Eccentricity": 0.0,
        "Inclination(deg)": 45.0,
        "Latitude(deg)": -9.36391445675274,
        "Longitude(deg)": 95.3661050300077,
        "Mean Anomaly(deg)": -13.146439566755443,
        "RAAN(deg)": 204.99700077422483,
        "Satellite Name": "Constellation 1 923",
        "Satellite Number": 923,
        "Semi-Major Axis(m)": 7083131.272910544,
        "Time(s)": 53
    },
    {
        "Altitude(m)": 705111.436216732,
        "Argument of Periapsis(deg)": 0.0032371923372519038,
        "Eccentricity": 0.0,
        "Inclination(deg)": 45.0,
        "Latitude(deg)": -9.321309810702326,
        "Longitude(deg)": 95.40598786208811,
        "Mean Anomaly(deg)": -13.08573842650548,
        "RAAN(deg)": 204.99694418505925,
        "Satellite Name": "Constellation 1 923",
        "Satellite Number": 923,
        "Semi-Major Axis(m)": 7083131.272910544,
        "Time(s)": 54
    },
    {
        "Altitude(m)": 705101.6688977238,
        "Argument of Periapsis(deg)": 0.0032971403434973088,
        "Eccentricity": 0.0,
        "Inclination(deg)": 45.0,
        "Latitude(deg)": -9.278699543805292,
        "Longitude(deg)": 95.44586012415091,
        "Mean Anomaly(deg)": -13.025037286255492,
        "RAAN(deg)": 204.99688759589367,
        "Satellite Name": "Constellation 1 923",
        "Satellite Number": 923,
        "Semi-Major Axis(m)": 7083131.272910544,
        "Time(s)": 55
    },
    {
        "Altitude(m)": 705091.9187278545,
        "Argument of Periapsis(deg)": 0.0033570883497427146,
        "Eccentricity": 0.0,
        "Inclination(deg)": 45.0,
        "Latitude(deg)": -9.236083683082818,
        "Longitude(deg)": 95.485721866858,
        "Mean Anomaly(deg)": -12.964336146005758,
        "RAAN(deg)": 204.99683100672812,
        "Satellite Name": "Constellation 1 923",
        "Satellite Number": 923,
        "Semi-Major Axis(m)": 7083131.272910544,
        "Time(s)": 56
    }
]